$$SOE
2460728.500000000, A.D. 2025-Feb-22 00:00:00.0000, 1.533592813316386E+08, 1.900842013627253E+08, -2.857191520688085E+07,
2460735.500000000, A.D. 2025-Mar-01 00:00:00.0000, 1.434945925286048E+08, 2.025366320008413E+08, -2.867583559612840E+07,
2460742.500000000, A.D. 2025-Mar-08 00:00:00.0000, 1.331831878465055E+08, 2.143592789883335E+08, -2.869053280296873E+07,
2460749.500000000, A.D. 2025-Mar-15 00:00:00.0000, 1.224769800299261E+08, 2.255472579879527E+08, -2.862023056095076E+07,
2460756.500000000, A.D. 2025-Mar-22 00:00:00.0000, 1.114253229216626E+08, 2.360998848664290E+08, -2.846925558510541E+07,
2460763.500000000, A.D. 2025-Mar-29 00:00:00.0000, 1.000747884630058E+08, 2.460200751346730E+08, -2.824197080985416E+07,
2460770.500000000, A.D. 2025-Apr-05 00:00:00.0000, 8.846904405135079E+07, 2.553137806877861E+08, -2.794272033672705E+07,
2460777.500000000, A.D. 2025-Apr-12 00:00:00.0000, 7.664881013343313E+07, 2.639894732380224E+08, -2.757578502057102E+07,
2460784.500000000, A.D. 2025-Apr-19 00:00:00.0000, 6.465188095166400E+07, 2.720576785047836E+08, -2.714534763762698E+07,
2460791.500000000, A.D. 2025-Apr-26 00:00:00.0000, 5.251319367262145E+07, 2.795305625547257E+08, -2.665546646724260E+07,
2460798.500000000, A.D. 2025-May-03 00:00:00.0000, 4.026493306126948E+07, 2.864215694636160E+08, -2.611005607982741E+07,
2460805.500000000, A.D. 2025-May-10 00:00:00.0000, 2.793666089769607E+07, 2.927451077880856E+08, -2.551287417302486E+07,
2460812.500000000, A.D. 2025-May-17 00:00:00.0000, 1.555546134494152E+07, 2.985162822336514E+08, -2.486751339788550E+07,
2460819.500000000, A.D. 2025-May-24 00:00:00.0000, 3.146095420851424E+06, 3.037506663181320E+08, -2.417739724572738E+07,
2460826.500000000, A.D. 2025-May-31 00:00:00.0000, -9.268840456835659E+06, 3.084641119751627E+08, -2.344577918131079E+07,
2460833.500000000, A.D. 2025-Jun-07 00:00:00.0000, -2.166875636949217E+07, 3.126725929676042E+08, -2.267574418117723E+07,
2460840.500000000, A.D. 2025-Jun-14 00:00:00.0000, -3.403491661467782E+07, 3.163920772956682E+08, -2.187021192120288E+07,
2460847.500000000, A.D. 2025-Jun-21 00:00:00.0000, -4.635029415130485E+07, 3.196384214568573E+08, -2.103194149662937E+07,
2460854.500000000, A.D. 2025-Jun-28 00:00:00.0000, -5.859943007773217E+07, 3.224272848170972E+08, -2.016353741471052E+07,
2460861.500000000, A.D. 2025-Jul-05 00:00:00.0000, -7.076830052872384E+07, 3.247740631208111E+08, -1.926745622283591E+07,
2460868.500000000, A.D. 2025-Jul-12 00:00:00.0000, -8.284419263006794E+07, 3.266938375568083E+08, -1.834601346982850E+07,
2460875.500000000, A.D. 2025-Jul-19 00:00:00.0000, -9.481558946067722E+07, 3.282013363762296E+08, -1.740139086084411E+07,
2460882.500000000, A.D. 2025-Jul-26 00:00:00.0000, -1.066720637231319E+08, 3.293109069046898E+08, -1.643564347228102E+07,
2460889.500000000, A.D. 2025-Aug-02 00:00:00.0000, -1.184041798057024E+08, 3.300364961643533E+08, -1.545070691120122E+07,
2460896.500000000, A.D. 2025-Aug-09 00:00:00.0000, -1.300034038508587E+08, 3.303916385487677E+08, -1.444840433333617E+07,
2460903.500000000, A.D. 2025-Aug-16 00:00:00.0000, -1.414620213219267E+08, 3.303894491770348E+08, -1.343045326707634E+07,
2460910.500000000, A.D. 2025-Aug-23 00:00:00.0000, -1.527730613044345E+08, 3.300426218365974E+08, -1.239847222356549E+07,
2460917.500000000, A.D. 2025-Aug-30 00:00:00.0000, -1.639302267259547E+08, 3.293634312979968E+08, -1.135398703479142E+07,
2460924.500000000, A.D. 2025-Sep-06 00:00:00.0000, -1.749278314248623E+08, 3.283637402256069E+08, -1.029843669036143E+07,
2460931.500000000, A.D. 2025-Sep-13 00:00:00.0000, -1.857607452562955E+08, 3.270550075552924E+08, -9.233178714330524E+06,
2460938.500000000, A.D. 2025-Sep-20 00:00:00.0000, -1.964243434940381E+08, 3.254482961488699E+08, -8.159494513872445E+06,
2460945.500000000, A.D. 2025-Sep-27 00:00:00.0000, -2.069144590325454E+08, 3.235542823851610E+08, -7.078594545481309E+06,
2460952.500000000, A.D. 2025-Oct-04 00:00:00.0000, -2.172273389940618E+08, 3.213832678596003E+08, -5.991623077453524E+06,
2460959.500000000, A.D. 2025-Oct-11 00:00:00.0000, -2.273596057291114E+08, 3.189451919436417E+08, -4.899662601356640E+06,
2460966.500000000, A.D. 2025-Oct-18 00:00:00.0000, -2.373082215747138E+08, 3.162496446797294E+08, -3.803737952871904E+06,
2460973.500000000, A.D. 2025-Oct-25 00:00:00.0000, -2.470704569090363E+08, 3.133058798252667E+08, -2.704820167714968E+06,
2460980.500000000, A.D. 2025-Nov-01 00:00:00.0000, -2.566438611660669E+08, 3.101228279059955E+08, -1.603830089706481E+06,
2460987.500000000, A.D. 2025-Nov-08 00:00:00.0000, -2.660262365011005E+08, 3.067091091242511E+08, -5.016417515415251E+05,
2460994.500000000, A.D. 2025-Nov-15 00:00:00.0000, -2.752156137068108E+08, 3.030730459648201E+08, 6.009144388832003E+05,
2461001.500000000, A.D. 2025-Nov-22 00:00:00.0000, -2.842102297473201E+08, 2.992226756397644E+08, 1.703048673533335E+06,
2461008.500000000, A.D. 2025-Nov-29 00:00:00.0000, -2.930085068558636E+08, 2.951657634459482E+08, 2.804008973791912E+06,
2461015.500000000, A.D. 2025-Dec-06 00:00:00.0000, -3.016090352870115E+08, 2.909098168547646E+08, 3.903078858897954E+06,
2461022.500000000, A.D. 2025-Dec-13 00:00:00.0000, -3.100105591187217E+08, 2.864620969328517E+08, 4.999575125353858E+06,
2461029.500000000, A.D. 2025-Dec-20 00:00:00.0000, -3.182119614535016E+08, 2.818296280917585E+08, 6.092845488922238E+06,
2461036.500000000, A.D. 2025-Dec-27 00:00:00.0000, -3.262122499548760E+08, 2.770192087410789E+08, 7.182266388264611E+06,
2461043.500000000, A.D. 2026-Jan-03 00:00:00.0000, -3.340105440552937E+08, 2.720374222243626E+08, 8.267241022921056E+06,
2461050.500000000, A.D. 2026-Jan-10 00:00:00.0000, -3.416060636117125E+08, 2.668906473588893E+08, 9.347197550185010E+06,
2461057.500000000, A.D. 2026-Jan-17 00:00:00.0000, -3.489981186727433E+08, 2.615850684906407E+08, 1.042158740295447E+07,
2461064.500000000, A.D. 2026-Jan-24 00:00:00.0000, -3.561861001861334E+08, 2.561266850934014E+08, 1.148988371476988E+07,
2461071.500000000, A.D. 2026-Jan-31 00:00:00.0000, -3.631694715387534E+08, 2.505213209136960E+08, 1.255157984134339E+07,
2461078.500000000, A.D. 2026-Feb-07 00:00:00.0000, -3.699477607909342E+08, 2.447746326152681E+08, 1.360618796084324E+07,
2461085.500000000, A.D. 2026-Feb-14 00:00:00.0000, -3.765205532824308E+08, 2.388921179199089E+08, 1.465323772153988E+07,
2461092.500000000, A.D. 2026-Feb-21 00:00:00.0000, -3.828874841594052E+08, 2.328791238340823E+08, 1.569227494194098E+07,
2461099.500000000, A.D. 2026-Feb-28 00:00:00.0000, -3.890482318513476E+08, 2.267408561274143E+08, 1.672286055110249E+07,
2461106.500000000, A.D. 2026-Mar-07 00:00:00.0000, -3.950025145078504E+08, 2.204823881272077E+08, 1.774456979291789E+07,
2461113.500000000, A.D. 2026-Mar-14 00:00:00.0000, -4.007500865741599E+08, 2.141086665117549E+08, 1.875699124409038E+07,
2461120.500000000, A.D. 2026-Mar-21 00:00:00.0000, -4.062907336796099E+08, 2.076245170136496E+08, 1.975972571455100E+07,
2461127.500000000, A.D. 2026-Mar-28 00:00:00.0000, -4.116242678125262E+08, 2.010346510748084E+08, 2.075238529440384E+07,
2461134.500000000, A.D. 2026-Apr-04 00:00:00.0000, -4.167505233540328E+08, 1.943436725032187E+08, 2.173459251992419E+07,
2461141.500000000, A.D. 2026-Apr-11 00:00:00.0000, -4.216693536666203E+08, 1.875560837871153E+08, 2.270597960053317E+07,
2461148.500000000, A.D. 2026-Apr-18 00:00:00.0000, -4.263806280498807E+08, 1.806762920742238E+08, 2.366618768833037E+07,
2461155.500000000, A.D. 2026-Apr-25 00:00:00.0000, -4.308842289919198E+08, 1.737086148442817E+08, 2.461486618413822E+07,
2461162.500000000, A.D. 2026-May-02 00:00:00.0000, -4.351800496626504E+08, 1.666572852583042E+08, 2.555167207198589E+07,
2461169.500000000, A.D. 2026-May-09 00:00:00.0000, -4.392679915035193E+08, 1.595264571312109E+08, 2.647626926255083E+07,
2461176.500000000, A.D. 2026-May-16 00:00:00.0000, -4.431479615167258E+08, 1.523202096788034E+08, 2.738832791972407E+07,
2461183.500000000, A.D. 2026-May-23 00:00:00.0000, -4.468198691846018E+08, 1.450425530737703E+08, 2.828752384673131E+07,
2461190.500000000, A.D. 2026-May-30 00:00:00.0000, -4.502836250819803E+08, 1.376974351421414E+08, 2.917353814625547E+07,
2461197.500000000, A.D. 2026-Jun-06 00:00:00.0000, -4.535391414850454E+08, 1.302887459388112E+08, 3.004605691392710E+07,
2461204.500000000, A.D. 2026-Jun-13 00:00:00.0000, -4.565863312957945E+08, 1.228203204127889E+08, 3.090477064306178E+07,
2461211.500000000, A.D. 2026-Jun-20 00:00:00.0000, -4.594251057684256E+08, 1.152959420967377E+08, 3.174937362350637E+07,
2461218.500000000, A.D. 2026-Jun-27 00:00:00.0000, -4.620553727265323E+08, 1.077193474882005E+08, 3.257956346047883E+07,
2461225.500000000, A.D. 2026-Jul-04 00:00:00.0000, -4.644770352653551E+08, 1.000942303569602E+08, 3.339504064828631E+07,
2461232.500000000, A.D. 2026-Jul-11 00:00:00.0000, -4.666899906795306E+08, 9.242424585740978E+07, 3.419550816327507E+07,
2461239.500000000, A.D. 2026-Jul-18 00:00:00.0000, -4.686941295175378E+08, 8.471301448255461E+07, 3.498067106810777E+07,
2461246.500000000, A.D. 2026-Jul-25 00:00:00.0000, -4.704893347321565E+08, 7.696412587277301E+07, 3.575023612389518E+07,
2461253.500000000, A.D. 2026-Aug-01 00:00:00.0000, -4.720754808728361E+08, 6.918114244098917E+07, 3.650391140044311E+07,
2461260.500000000, A.D. 2026-Aug-08 00:00:00.0000, -4.734524330995881E+08, 6.136760278761113E+07, 3.724140586067017E+07,
2461267.500000000, A.D. 2026-Aug-15 00:00:00.0000, -4.746200455984414E+08, 5.352702536445370E+07, 3.796242891672491E+07,
2461274.500000000, A.D. 2026-Aug-22 00:00:00.0000, -4.755781601553146E+08, 4.566291361728700E+07, 3.866669012627640E+07,
2461281.500000000, A.D. 2026-Aug-29 00:00:00.0000, -4.763266071749632E+08, 3.777876124228571E+07, 3.935389912573899E+07,
2461288.500000000, A.D. 2026-Sep-05 00:00:00.0000, -4.768652070105614E+08, 2.987805469722974E+07, 4.002376536958360E+07,
2461295.500000000, A.D. 2026-Sep-12 00:00:00.0000, -4.771937691465870E+08, 2.196427547286380E+07, 4.067599765379542E+07,
$$EOE